BEIDOU 3 (C01)          
1 36287U 10001A   20230.52688323 -.00000287  00000-0  00000-0 0  9990
2 36287   1.4896  30.1231 0005323 121.5021 144.7872  1.00267643 38824
BEIDOU 5 (C06)          
1 36828U 10036A   20230.54996832 -.00000114  00000-0  10000-3 0  9991
2 36828  54.1691 182.4229 0101370 235.3744 223.1326  1.00298243 36864
BEIDOU 6 (C04)          
1 37210U 10057A   20230.62650951 -.00000118  00000-0  00000-0 0  9998
2 37210   0.9138  52.6362 0005437 118.8808 180.5009  1.00271782 35923
BEIDOU 7 (C07)          
1 37256U 10068A   20230.37989626 -.00000181  00000-0  00000+0 0  9995
2 37256  51.3784 297.6161 0082318 213.1544  69.8983  1.00294096 35447
BEIDOU 8 (C08)          
1 37384U 11013A   20230.26205469 -.00000154  00000-0  10000-3 0  9997
2 37384  59.3544  60.9776 0049762 201.1093 276.1283  1.00289504 34326
BEIDOU 9 (C09)          
1 37763U 11038A   20230.35005543 -.00000091  00000-0  10000-3 0  9996
2 37763  54.4535 184.8179 0074151 225.7287 137.2116  1.00281868 33295
BEIDOU 10 (C10)         
1 37948U 11073A   20230.15824196 -.00000124  00000-0  10000-3 0  9998
2 37948  51.4734 297.2140 0070662 213.7709 327.7464  1.00282221 32042
BEIDOU 11 (C05)         
1 38091U 12008A   20230.64493834  .00000051  00000-0  00000-0 0  9996
2 38091   1.6040  68.3973 0001740 287.2213 261.7141  1.00270528 31121
BEIDOU 12 (C11)         
1 38250U 12018A   20230.37535444 -.00000067  00000-0  10000-3 0  9990
2 38250  56.7421  15.6572 0021050 238.4435 304.6171  1.86234366 56628
BEIDOU 13 (C12)         
1 38251U 12018B   20230.03452130 -.00000067  00000-0  00000-0 0  9990
2 38251  56.6691  15.0361 0012021 237.7049 122.0936  1.86232701 56619
BEIDOU 15 (C14)         
1 38775U 12050B   20230.55400581 -.00000006  00000-0  00000-0 0  9990
2 38775  55.0825 134.2350 0015479 319.7967 224.7897  1.86232362 54004
BEIDOU 16 (C02)         
1 38953U 12059A   20230.64632483 -.00000183  00000-0  00000-0 0  9991
2 38953   1.2470  84.0182 0006276 268.7086 290.5039  1.00273097 28697
BEIDOU 17 (C31)         
1 40549U 15019A   20230.44642215 -.00000177  00000-0  00000+0 0  9998
2 40549  52.9659 320.5023 0040340 189.5257  74.4011  1.00274277 19729
BEIDOU 18 (C57)         
1 40748U 15037A   20230.21305141 -.00000069  00000-0  00000-0 0  9999
2 40748  55.9379  14.3013 0002801  44.4307 344.9352  1.86232098 34453
BEIDOU 19 (C58)         
1 40749U 15037B   20229.88364374 -.00000069  00000-0  00000-0 0  9994
2 40749  55.9392  14.2978 0002416 326.5835 338.9923  1.86232314 34436
BEIDOU 20 (C18)         
1 40938U 15053A   20230.37761310 -.00000078  00000-0  00000-0 0  9999
2 40938  52.5254 283.5368 0051963 190.2934  82.9340  1.00259188 18005
BEIDOU IGSO-6 (C13)     
1 41434U 16021A   20230.24699071 -.00000114  00000-0  00000-0 0  9998
2 41434  57.1223  59.8632 0039885 203.3462 246.0926  1.00287565 16138
BEIDOU-2 G7 (C03)       
1 41586U 16037A   20230.60752541 -.00000361  00000-0  00000-0 0  9999
2 41586   1.6141  66.0192 0007631   6.1948 223.4897  1.00272340 15435
BEIDOU-3 M1 (C19)       
1 43001U 17069A   20230.45931543 -.00000007  00000-0  00000-0 0  9990
2 43001  55.2359 134.1490 0010327 293.9587 343.9124  1.86231957 18936
BEIDOU-3 M2 (C20)       
1 43002U 17069B   20230.39029574 -.00000007  00000-0  00000-0 0  9996
2 43002  55.2362 134.1862 0009649 313.7768 321.6456  1.86231531 18929
BEIDOU-3 M3 (C27)       
1 43107U 18003A   20230.27504155 -.00000069  00000-0  00000+0 0  9998
2 43107  55.3706  15.5166 0004475  54.6421 309.3840  1.86232914 17695
BEIDOU-3 M4 (C28)       
1 43108U 18003B   20230.20118957 -.00000069  00000-0  00000-0 0  9994
2 43108  55.3643  15.5107 0003022 219.6042 140.0480  1.86232762 17680
BEIDOU-3 M5 (C21)       
1 43207U 18018A   20230.11235976 -.00000010  00000-0  00000-0 0  9997
2 43207  55.1936 134.2978 0007033 339.4239  20.5836  1.86231694 17076
BEIDOU-3 M6 (C22)       
1 43208U 18018B   20229.10520234 -.00000018  00000-0  00000-0 0  9997
2 43208  55.1929 134.3367 0008249 307.5828  52.3733  1.86231636 17055
BEIDOU-3 M7 (C29)       
1 43245U 18029A   20230.46224844 -.00000071  00000-0  00000+0 0  9997
2 43245  55.3171  13.3177 0000799 138.7647 260.8091  1.86233051 16232
BEIDOU-3 M8 (C30)       
1 43246U 18029B   20229.32313179 -.00000071  00000-0  10000-3 0  9996
2 43246  55.3102  13.3879 0003156 350.8199  50.9335  1.86233051 16201
BEIDOU IGSO-7 (C16)     
1 43539U 18057A   20230.29215978 -.00000137  00000-0  00000+0 0  9996
2 43539  55.0487 181.6966 0029570 214.9696 144.3101  1.00248916  7790
BEIDOU-3 M9 (C23)       
1 43581U 18062A   20230.17041659  .00000079  00000-0  00000+0 0  9993
2 43581  54.5383 255.0500 0006145 256.8187 202.5185  1.86231879 13968
BEIDOU-3 M10 (C24)      
1 43582U 18062B   20230.38817808  .00000078  00000-0  00000+0 0  9993
2 43582  54.5397 255.0303 0004488 316.9775  19.3301  1.86232144 13964
BEIDOU-3 M11 (C25)      
1 43602U 18067A   20230.33099641  .00000080  00000-0  00000-0 0  9997
2 43602  54.6100 253.5898 0006157 340.8015   0.0521  1.86231698 13458
BEIDOU-3 M12 (C26)      
1 43603U 18067B   20230.45049862  .00000079  00000-0  00000-0 0  9999
2 43603  54.6063 253.5542 0003981 320.4150  11.0834  1.86231647 13474
BEIDOU-3 M13 (C32)      
1 43622U 18072A   20230.32293706 -.00000008  00000-0  00000-0 0  9993
2 43622  55.1596 133.8684 0006776 293.4487 342.9563  1.86232047 12981
BEIDOU-3 M14 (C33)      
1 43623U 18072B   20230.09498981 -.00000010  00000-0  00000-0 0  9993
2 43623  55.1614 133.8687 0005790 318.2529 255.5426  1.86232073 12980
BEIDOU-3 M15 (C34)      
1 43647U 18078A   20230.20446505 -.00000071  00000-0  10000-3 0  9994
2 43647  55.2082  13.5417 0005552 352.8073 189.5593  1.86233040 12509
BEIDOU-3 M16 (C35)      
1 43648U 18078B   20230.54876028 -.00000071  00000-0  10000-3 0  9999
2 43648  55.2052  13.5389 0003568   9.8424 312.3458  1.86232650 12512
BEIDOU-3 G1 (C59)       
1 43683U 18085A   20229.92172735 -.00000283  00000-0  00000+0 0  9990
2 43683   1.6388 252.9821 0003104 341.3127 203.3121  1.00270576  6703
BEIDOU-3 M17 (C36)      
1 43706U 18093A   20230.21617824  .00000079  00000-0  00000-0 0  9995
2 43706  54.6179 254.8839 0011771 261.5866  93.4085  1.86231797 11852
BEIDOU-3 M18 (C37)      
1 43707U 18093B   20230.24719686  .00000079  00000-0  00000+0 0  9997
2 43707  54.6196 254.8734 0010044 279.8897 186.4754  1.86232046 11869
BEIDOU-3 IGSO-1 (C38)   
1 44204U 19023A   20230.44967943 -.00000178  00000-0  10000-3 0  9993
2 44204  55.5814  60.2421 0017893 178.0300   3.6374  1.00276049  5003
BEIDOU-2 G8             
1 44231U 19027A   20230.53214581 -.00000252  00000-0  00000-0 0  9999
2 44231   0.8507 298.9891 0007220 268.3139  95.1454  1.00275210  4724
BEIDOU-3 IGSO-2 (C39)   
1 44337U 19035A   20230.29215978 -.00000141  00000-0  00000-0 0  9996
2 44337  55.0748 177.7503 0014198 190.1004 171.4418  1.00272054  4348
BEIDOU-3 M23 (C45)      
1 44542U 19061A   20230.28034439  .00000080  00000-0  10000-3 0  9998
2 44542  54.8415 254.8920 0008651 306.4381 136.0862  1.86231309  6121
BEIDOU-3 M24 (C46)      
1 44543U 19061B   20230.35142141  .00000079  00000-0  10000-3 0  9995
2 44543  54.8406 254.8596 0006758 290.0523 110.5993  1.86231932  6138
BEIDOU-3 IGSO-3         
1 44709U 19073A   20230.63885471 -.00000143  00000-0  10000-3 0  9996
2 44709  58.3056 303.2793 0025436 189.3636 170.6650  1.00266000  3100
BEIDOU-3 M21            
1 44793U 19078A   20230.54249845 -.00000072  00000-0  10000-3 0  9994
2 44793  55.0599  13.6344 0005464   1.5241   2.2805  1.86232832  4999
BEIDOU-3 M22            
1 44794U 19078B   20229.61144759 -.00000072  00000-0  10000-3 0  9999
2 44794  55.0309  13.6708 0003308   0.7479   9.2321  1.86233324  4977
BEIDOU-3 M19            
1 44864U 19090A   20230.58832024 -.00000006  00000-0  00000-0 0  9991
2 44864  55.0932 134.1061 0015503 266.0520 233.5444  1.86232046  4576
BEIDOU-3 M20            
1 44865U 19090B   20230.41203800 -.00000007  00000-0  10000-3 0  9993
2 44865  55.0962 134.1444 0014747 282.6613 188.6859  1.86232035  4557
BEIDOU-3 G2             
1 45344U 20017A   20230.58663983 -.00000144  00000-0  00000-0 0  9995
2 45344   2.8656 329.1974 0002443 170.2687 118.1863  1.00272350  1917
BEIDOU-3 G3             
1 45807U 20040A   20230.59169546 -.00000358  00000-0  00000-0 0  9999
2 45807   2.9829 298.7126 0006986 347.2378   4.0479  1.00272430   715
